ONEWEB-0113             
1 48050U 21025J   23309.08187048 -.00000090  00000+0 -28085-3 0  9996
2 48050  87.8936 150.2939 0001539  76.0361 284.0939 13.13469814128208
ONEWEB-0112             
1 48051U 21025K   23308.84065125 -.00000093  00000+0 -29042-3 0  9998
2 48051  87.8997 150.3327 0001621  84.4412 275.6902 13.13471054128182
ONEWEB-0156             
1 48052U 21025L   23308.92739970  .00000234  00000+0  60538-3 0  9994
2 48052  87.8997 150.3044 0001589  85.0494 275.0816 13.13472227128179
ONEWEB-0161             
1 48053U 21025M   23309.12843395 -.00000243  00000+0 -70037-3 0  9992
2 48053  87.8990 150.2727 0001448  89.9669 270.1626 13.13469532128148
ONEWEB-0158             
1 48054U 21025N   23308.94011029  .00000375  00000+0  99061-3 0  9995
2 48054  87.8921 150.3018 0001642  76.4667 283.6645 13.13473440128235
ONEWEB-0157             
1 48055U 21025P   23308.65867617 -.00000133  00000+0 -39871-3 0  9993
2 48055  87.9002 150.3740 0001544  91.4364 268.6942 13.13469000128130
ONEWEB-0162             
1 48056U 21025Q   23308.92528468  .00000081  00000+0  18665-3 0  9990
2 48056  87.8997 150.3193 0001622  84.1902 275.9411 13.13472382128149
ONEWEB-0155             
1 48057U 21025R   23309.09881414  .00000280  00000+0  73151-3 0  9995
2 48057  87.9000 150.2919 0001518  83.4799 276.6503 13.13467887128314
ONEWEB-0149             
1 48058U 21025S   23308.81526125 -.00000207  00000+0 -60085-3 0  9993
2 48058  87.9001 150.3459 0001892  88.8697 271.2649 13.13469121128075
ONEWEB-0148             
1 48059U 21025T   23308.93164801  .00000208  00000+0  53485-3 0  9991
2 48059  87.8994 150.3292 0002118 102.0215 258.1151 13.13471196128211
ONEWEB-0160             
1 48060U 21025U   23309.10092318  .00000269  00000+0  70157-3 0  9998
2 48060  87.8992 150.2921 0002428  54.9038 305.2319 13.13471511128188
ONEWEB-0163             
1 48061U 21025V   23308.93374955  .00000315  00000+0  82713-3 0  9992
2 48061  87.9001 150.3185 0001432  95.8701 264.2592 13.13472098128288
ONEWEB-0159             
1 48062U 21025W   23308.92318363  .00000002  00000+0 -30122-4 0  9995
2 48062  87.8999 150.3068 0002410 100.4222 259.7179 13.13467247128204
ONEWEB-0164             
1 48063U 21025X   23309.13266784 -.00000274  00000+0 -78555-3 0  9992
2 48063  87.9000 150.2733 0001392  79.0197 281.1088 13.13469549128224
ONEWEB-0167             
1 48064U 21025Y   23309.08719359  .00000356  00000+0  94035-3 0  9998
2 48064  87.9000 150.2922 0001474  89.9712 270.1586 13.13470540128199
ONEWEB-0166             
1 48065U 21025Z   23308.80468242  .00000042  00000+0  79197-4 0  9995
2 48065  87.9000 150.3406 0001723  89.6932 270.4394 13.13469427128233
ONEWEB-0151             
1 48066U 21025AA  23308.80679270 -.00000064  00000+0 -20946-3 0  9994
2 48066  87.9002 150.3487 0001367  74.4214 285.7066 13.13467355128170
ONEWEB-0170             
1 48067U 21025AB  23309.11784883 -.00000055  00000+0 -18542-3 0  9996
2 48067  87.9000 150.2862 0001427  56.2762 303.8503 13.13467681128178
ONEWEB-0168             
1 48068U 21025AC  23308.79834031  .00000173  00000+0  43792-3 0  9995
2 48068  87.8926 150.3372 0001619  86.7038 273.4276 13.13468896128144
ONEWEB-0173             
1 48069U 21025AD  23308.94434473  .00000372  00000+0  98377-3 0  9999
2 48069  87.8928 150.3244 0001116  97.6208 262.5048 13.13470287128409
ONEWEB-0171             
1 48070U 21025AE  23309.05437972 -.00000286  00000+0 -81792-3 0  9990
2 48070  87.8995 150.3116 0001317  82.7184 277.4095 13.13472151128234
ONEWEB-0172             
1 48071U 21025AF  23308.80785888 -.00000087  00000+0 -27286-3 0  9992
2 48071  87.8996 150.3293 0001177  85.2862 274.8402 13.13470990129094
ONEWEB-0174             
1 48072U 21025AG  23308.94223353  .00000289  00000+0  75747-3 0  9999
2 48072  87.8993 150.3177 0001755  87.0594 273.0735 13.13465689128433
ONEWEB-0175             
1 48073U 21025AH  23308.81738540 -.00000261  00000+0 -74887-3 0  9991
2 48073  87.8999 150.3372 0001249  67.9682 292.1580 13.13468596128070
ONEWEB-0177             
1 48074U 21025AJ  23308.83006002 -.00000491  00000+0 -13795-2 0  9990
2 48074  87.9001 150.3392 0001308 103.7255 256.4020 13.13470193128268
ONEWEB-0178             
1 48075U 21025AK  23309.07659041  .00000189  00000+0  48284-3 0  9999
2 48075  87.8992 150.2943 0001473  93.3511 266.7787 13.13471388128340
ONEWEB-0108             
1 48076U 21025AL  23308.80892241 -.00000053  00000+0 -18058-3 0  9999
2 48076  87.9000 150.3428 0001766  79.7870 280.3459 13.13468860128239
ONEWEB-0169             
1 48077U 21025AM  23309.06707309 -.00000032  00000+0 -12337-3 0  9990
2 48077  87.9000 150.2944 0001973  82.0462 278.0890 13.13468860128161
ONEWEB-0176             
1 48210U 21031A   23308.90015522 -.00008999  00000+0 -24366-1 0  9990
2 48210  87.8933 119.8584 0001578  89.0101 271.1210 13.14405705122819
ONEWEB-0184             
1 48211U 21031B   23309.17891856  .00009208  00000+0  24743-1 0  9994
2 48211  87.8945 119.7871 0000668  50.8519 309.2670 13.14598677122824
ONEWEB-0179             
1 48212U 21031C   23308.91920761 -.00004815  00000+0 -13051-1 0  9995
2 48212  87.8937 119.8339 0001916  99.4828 260.6518 13.14393007122837
ONEWEB-0180             
1 48213U 21031D   23309.18128768 -.00002648  00000+0 -71818-2 0  9991
2 48213  87.8943 119.7850 0001432  99.2860 260.8431 13.14468158122756
ONEWEB-0218             
1 48214U 21031E   23308.89818152 -.00015563  00000+0 -42187-1 0  9998
2 48214  87.8946 119.8433 0000376 102.8169 257.3002 13.14335421122871
ONEWEB-0209             
1 48215U 21031F   23308.88748640 -.00009382  00000+0 -25403-1 0  9996
2 48215  87.8936 119.8818 0001637  94.8895 265.2421 13.14406248122874
ONEWEB-0198             
1 48216U 21031G   23309.17690872  .00002272  00000+0  60900-2 0  9994
2 48216  87.8935 119.8316 0001050 103.0336 257.0911 13.14540433123003
ONEWEB-0189             
1 48217U 21031H   23309.18959610  .00002200  00000+0  58957-2 0  9994
2 48217  87.8933 119.8063 0001044 107.4219 252.7025 13.14539294122765
ONEWEB-0196             
1 48218U 21031J   23309.16820988  .00015202  00000+0  40805-1 0  9996
2 48218  87.8939 119.8065 0001441  98.1803 261.9491 13.14665698122756
ONEWEB-0183             
1 48219U 21031K   23308.91286881 -.00008832  00000+0 -23913-1 0  9991
2 48219  87.8931 119.8783 0001755  95.9034 264.2296 13.14405902122822
ONEWEB-0185             
1 48220U 21031L   23309.16919806  .00014428  00000+0  38698-1 0  9993
2 48220  87.8933 119.8010 0001979  88.4974 271.6383 13.14719477122786
ONEWEB-0187             
1 48221U 21031M   23308.91586992  .00000057  00000+0  11865-3 0  9994
2 48221  87.8937 119.8812 0001522  95.9159 264.2144 13.14500716122768
ONEWEB-0192             
1 48222U 21031N   23308.88949170 -.00003003  00000+0 -81414-2 0  9994
2 48222  87.8971 119.8613 0001194  92.6597 267.4669 13.14470652122673
ONEWEB-0219             
1 48223U 21031P   23308.94623649  .00014445  00000+0  38777-1 0  9995
2 48223  87.8939 119.8482 0001539 103.8722 256.2579 13.14659987122889
ONEWEB-0202             
1 48224U 21031Q   23308.92554136 -.00008083  00000+0 -21886-1 0  9994
2 48224  87.8929 119.8734 0000728 130.3403 229.7790 13.14413191122862
ONEWEB-0204             
1 48225U 21031R   23309.18807882 -.00000141  00000+0 -41715-3 0  9995
2 48225  87.8938 119.8334 0002078  89.5662 270.5706 13.14336131122804
ONEWEB-0205             
1 48226U 21031S   23308.93588957  .00003100  00000+0  83210-2 0  9998
2 48226  87.8938 119.8533 0001518 100.0023 260.1278 13.14533802122773
ONEWEB-0206             
1 48227U 21031T   23308.98464762 -.00002628  00000+0 -71286-2 0  9997
2 48227  87.8937 119.8317 0001526 100.2062 259.9240 13.14470799122744
ONEWEB-0182             
1 48228U 21031U   23308.90247930 -.00021150  00000+0 -57398-1 0  9994
2 48228  87.8931 119.8684 0001451  92.4242 267.7054 13.14284780122939
ONEWEB-0186             
1 48229U 21031V   23308.99096504 -.00002887  00000+0 -78276-2 0  9998
2 48229  87.8933 119.8165 0001400  94.4364 265.6926 13.14471309122904
ONEWEB-0181             
1 48230U 21031W   23308.96794400 -.00015338  00000+0 -41573-1 0  9991
2 48230  87.8946 119.8949 0001278  91.2164 268.9112 13.14339923122757
ONEWEB-0188             
1 48231U 21031X   23308.93153204  .00009450  00000+0  25392-1 0  9997
2 48231  87.8933 119.8998 0001444  94.7479 265.3816 13.14601014122643
ONEWEB-0220             
1 48232U 21031Y   23308.89384139 -.00008439  00000+0 -22850-1 0  9990
2 48232  87.8937 119.8762 0001679 103.9744 256.1573 13.14407292122904
ONEWEB-0165             
1 48233U 21031Z   23308.92320443  .00003205  00000+0  86029-2 0  9996
2 48233  87.8932 119.8815 0001465  98.8839 261.2457 13.14534160122867
ONEWEB-0199             
1 48234U 21031AA  23308.90650611 -.00009141  00000+0 -24749-1 0  9995
2 48234  87.8932 119.8568 0001508  97.4306 262.6995 13.14408544122762
ONEWEB-0203             
1 48235U 21031AB  23308.89616055 -.00020706  00000+0 -56194-1 0  9997
2 48235  87.8937 119.8569 0001322  73.8575 286.2700 13.14278833122772
ONEWEB-0197             
1 48236U 21031AC  23309.03496704 -.00000100  00000+0 -30327-3 0  9990
2 48236  87.8937 119.8385 0001751  91.8864 268.2467 13.14585537122701
ONEWEB-0194             
1 48237U 21031AD  23308.92755134 -.00002435  00000+0 -66076-2 0  9995
2 48237  87.8936 119.8495 0001426  75.0911 285.0376 13.14469355122861
ONEWEB-0193             
1 48238U 21031AE  23308.94421772  .00009038  00000+0  24287-1 0  9997
2 48238  87.8934 119.8553 0001285  91.2614 268.8663 13.14598058122814
ONEWEB-0191             
1 48239U 21031AF  23309.18326810  .00003483  00000+0  93536-2 0  9994
2 48239  87.8947 119.7912 0001362  88.2772 271.8513 13.14533042122702
ONEWEB-0195             
1 48240U 21031AG  23309.00866085  .00012189  00000+0  32736-1 0  9997
2 48240  87.8938 119.8268 0001081 104.3490 255.7760 13.14636188122669
